CTC1_L_00392016-03
1 47568U 23615IG  26037.47805556  .00000000  00000+0  00000-0 0  9994
2 47568  90.0000 180.0000 0000000   0.0000   0.0000 13.03091717    13
CTC1_L_00392016-04
1 47569U 24976HN  26037.47805556  .00000000  00000+0  00000-0 0  9996
2 47569  90.0000 180.0000 0000000   0.0000  90.0000 13.03091717    13
CTC1_L_00392017-01
1 47570U 24318JV  26037.47805556  .00000000  00000+0  00000-0 0  9998
2 47570  90.0000 192.0000 0000000   0.0000 192.0000 13.03091717    11
CTC1_L_00392017-02
1 47571U 24310US  26037.47805556  .00000000  00000+0  00000-0 0  9991
2 47571  90.0000 192.0000 0000000   0.0000 282.0000 13.03091717    12
CTC1_L_00392017-03
1 47572U 25409TS  26037.47805556  .00000000  00000+0  00000-0 0  9992
2 47572  90.0000 192.0000 0000000   0.0000  12.0000 13.03091717    14
CTC1_L_00392017-04
1 47573U 25793HQ  26037.47805556  .00000000  00000+0  00000-0 0  9999
2 47573  90.0000 192.0000 0000000   0.0000 102.0000 13.03091717    15
CTC1_L_00392018-01
1 47574U 26783NA  26037.47805556  .00000000  00000+0  00000-0 0  9990
2 47574  90.0000 204.0000 0000000   0.0000 204.0000 13.03091717    13
CTC1_L_00392018-02
1 47575U 22189IO  26037.47805556  .00000000  00000+0  00000-0 0  9997
2 47575  90.0000 204.0000 0000000   0.0000 294.0000 13.03091717    13
CTC1_L_00392018-03
1 47576U 24812MV  26037.47805556  .00000000  00000+0  00000-0 0  9993
2 47576  90.0000 204.0000 0000000   0.0000  24.0000 13.03091717    15
CTC1_L_00392018-04
1 47577U 22541EH  26037.47805556  .00000000  00000+0  00000-0 0  9991
2 47577  90.0000 204.0000 0000000   0.0000 114.0000 13.03091717    16
CTC1_L_00392019-01
1 47578U 22868EF  26037.47805556  .00000000  00000+0  00000-0 0  9994
2 47578  90.0000 216.0000 0000000   0.0000 216.0000 13.03091717    13
CTC1_L_00392019-02
1 47579U 25256LM  26037.47805556  .00000000  00000+0  00000-0 0  9999
2 47579  90.0000 216.0000 0000000   0.0000 306.0000 13.03091717    14
CTC1_L_00392019-03
1 47580U 22170AC  26037.47805556  .00000000  00000+0  00000-0 0  9993
2 47580  90.0000 216.0000 0000000   0.0000  36.0000 13.03091717    16
CTC1_L_00392019-04
1 47581U 23877OA  26037.47805556  .00000000  00000+0  00000-0 0  9999
2 47581  90.0000 216.0000 0000000   0.0000 126.0000 13.03091717    17
CTC1_L_00392020-01
1 47582U 26594LF  26037.47805556  .00000000  00000+0  00000-0 0  9999
2 47582  90.0000 228.0000 0000000   0.0000 228.0000 13.03091717    14
CTC1_L_00392020-02
1 47583U 23149XT  26037.47805556  .00000000  00000+0  00000-0 0  9993
2 47583  90.0000 228.0000 0000000   0.0000 318.0000 13.03091717    15
CTC1_L_00392020-03
1 47584U 26939IT  26037.47805556  .00000000  00000+0  00000-0 0  9994
2 47584  90.0000 228.0000 0000000   0.0000  48.0000 13.03091717    16
CTC1_L_00392020-04
1 47585U 23177HM  26037.47805556  .00000000  00000+0  00000-0 0  9996
2 47585  90.0000 228.0000 0000000   0.0000 138.0000 13.03091717    17
CTC1_L_00392021-01
1 47586U 22927LC  26037.47805556  .00000000  00000+0  00000-0 0  9999
2 47586  90.0000 240.0000 0000000   0.0000 240.0000 13.03091717    16
CTC1_L_00392021-02
1 47587U 26705QE  26037.47805556  .00000000  00000+0  00000-0 0  9998
2 47587  90.0000 240.0000 0000000   0.0000 330.0000 13.03091717    17
CTC1_L_00392021-03
1 47588U 26060B   26037.47805556  .00000000  00000+0  00000-0 0  9993
2 47588  90.0000 240.0000 0000000   0.0000  60.0000 13.03091717    18
CTC1_L_00392021-04
1 47589U 24204LM  26037.47805556  .00000000  00000+0  00000-0 0  9992
2 47589  90.0000 240.0000 0000000   0.0000 150.0000 13.03091717    19
CTC1_L_00392022-01
1 47590U 25844BK  26037.47805556  .00000000  00000+0  00000-0 0  9995
2 47590  90.0000 252.0000 0000000   0.0000 252.0000 13.03091717    17
CTC1_L_00392022-02
1 47591U 23167RZ  26037.47805556  .00000000  00000+0  00000-0 0  9992
2 47591  90.0000 252.0000 0000000   0.0000 342.0000 13.03091717    18
CTC1_L_00392022-03
1 47592U 25307JU  26037.47805556  .00000000  00000+0  00000-0 0  9991
2 47592  90.0000 252.0000 0000000   0.0000  72.0000 13.03091717    19
CTC1_L_00392022-04
1 47593U 24783AM  26037.47805556  .00000000  00000+0  00000-0 0  9999
2 47593  90.0000 252.0000 0000000   0.0000 162.0000 13.03091717    10
CTC1_L_00392023-01
1 47594U 25826WV  26037.47805556  .00000000  00000+0  00000-0 0  9999
2 47594  90.0000 264.0000 0000000   0.0000 264.0000 13.03091717    17
CTC1_L_00392023-02
1 47595U 25528NY  26037.47805556  .00000000  00000+0  00000-0 0  9999
2 47595  90.0000 264.0000 0000000   0.0000 354.0000 13.03091717    18
CTC1_L_00392023-03
1 47596U 24005RT  26037.47805556  .00000000  00000+0  00000-0 0  9999
2 47596  90.0000 264.0000 0000000   0.0000  84.0000 13.03091717    19
CTC1_L_00392023-04
1 47597U 24852DR  26037.47805556  .00000000  00000+0  00000-0 0  9990
2 47597  90.0000 264.0000 0000000   0.0000 174.0000 13.03091717    10
CTC1_L_00392024-01
1 47598U 25254YT  26037.47805556  .00000000  00000+0  00000-0 0  9998
2 47598  90.0000 276.0000 0000000   0.0000 276.0000 13.03091717    17
CTC1_L_00392024-02
1 47599U 23240ET  26037.47805556  .00000000  00000+0  00000-0 0  9992
2 47599  90.0000 276.0000 0000000   0.0000   6.0000 13.03091717    19
CTC1_L_00392024-03
1 47600U 25959EY  26037.47805556  .00000000  00000+0  00000-0 0  9994
2 47600  90.0000 276.0000 0000000   0.0000  96.0000 13.03091717    11
CTC1_L_00392024-04
1 47601U 25384IW  26037.47805556  .00000000  00000+0  00000-0 0  9997
2 47601  90.0000 276.0000 0000000   0.0000 186.0000 13.03091717    12
CTC1_L_00392025-01
1 47602U 23143EV  26037.47805556  .00000000  00000+0  00000-0 0  9999
2 47602  90.0000 288.0000 0000000   0.0000 288.0000 13.03091717    19
CTC1_L_00392025-02
1 47603U 26147SM  26037.47805556  .00000000  00000+0  00000-0 0  9997
2 47603  90.0000 288.0000 0000000   0.0000  18.0000 13.03091717    11
CTC1_L_00392025-03
1 47604U 22358AK  26037.47805556  .00000000  00000+0  00000-0 0  9998
2 47604  90.0000 288.0000 0000000   0.0000 108.0000 13.03091717    12
CTC1_L_00392025-04
1 47605U 23241NF  26037.47805556  .00000000  00000+0  00000-0 0  9991
2 47605  90.0000 288.0000 0000000   0.0000 198.0000 13.03091717    12
CTC1_L_00392026-01
1 47606U 23887XR  26037.47805556  .00000000  00000+0  00000-0 0  9998
2 47606  90.0000 300.0000 0000000   0.0000 300.0000 13.03091717    13
CTC1_L_00392026-02
1 47607U 22940CB  26037.47805556  .00000000  00000+0  00000-0 0  9998
2 47607  90.0000 300.0000 0000000   0.0000  30.0000 13.03091717    14
CTC1_L_00392026-03
1 47608U 24295PV  26037.47805556  .00000000  00000+0  00000-0 0  9994
2 47608  90.0000 300.0000 0000000   0.0000 120.0000 13.03091717    15
CTC1_L_00392026-04
1 47609U 24534OF  26037.47805556  .00000000  00000+0  00000-0 0  9991
2 47609  90.0000 300.0000 0000000   0.0000 210.0000 13.03091717    16
CTC1_L_00392027-01
1 47610U 23269VC  26037.47805556  .00000000  00000+0  00000-0 0  9997
2 47610  90.0000 312.0000 0000000   0.0000 312.0000 13.03091717    14
CTC1_L_00392027-02
1 47611U 25243VA  26037.47805556  .00000000  00000+0  00000-0 0  9992
2 47611  90.0000 312.0000 0000000   0.0000  42.0000 13.03091717    15
CTC1_L_00392027-03
1 47612U 22947KI  26037.47805556  .00000000  00000+0  00000-0 0  9991
2 47612  90.0000 312.0000 0000000   0.0000 132.0000 13.03091717    16
CTC1_L_00392027-04
1 47613U 23746WK  26037.47805556  .00000000  00000+0  00000-0 0  9990
2 47613  90.0000 312.0000 0000000   0.0000 222.0000 13.03091717    17
CTC1_L_00392028-01
1 47614U 23875QP  26037.47805556  .00000000  00000+0  00000-0 0  9994
2 47614  90.0000 324.0000 0000000   0.0000 324.0000 13.03091717    14
CTC1_L_00392028-02
1 47615U 25554EQ  26037.47805556  .00000000  00000+0  00000-0 0  9991
2 47615  90.0000 324.0000 0000000   0.0000  54.0000 13.03091717    15
CTC1_L_00392028-03
1 47616U 25046TR  26037.47805556  .00000000  00000+0  00000-0 0  9998
2 47616  90.0000 324.0000 0000000   0.0000 144.0000 13.03091717    16
CTC1_L_00392028-04
1 47617U 26333YM  26037.47805556  .00000000  00000+0  00000-0 0  9999
2 47617  90.0000 324.0000 0000000   0.0000 234.0000 13.03091717    17
CTC1_L_00392029-01
1 47618U 24576DL  26037.47805556  .00000000  00000+0  00000-0 0  9997
2 47618  90.0000 336.0000 0000000   0.0000 336.0000 13.03091717    14
CTC1_L_00392029-02
1 47619U 22772X   26037.47805556  .00000000  00000+0  00000-0 0  9994
2 47619  90.0000 336.0000 0000000   0.0000  66.0000 13.03091717    15
CTC1_L_00392029-03
1 47620U 23089ML  26037.47805556  .00000000  00000+0  00000-0 0  9998
2 47620  90.0000 336.0000 0000000   0.0000 156.0000 13.03091717    17
CTC1_L_00392029-04
1 47621U 25636WN  26037.47805556  .00000000  00000+0  00000-0 0  9999
2 47621  90.0000 336.0000 0000000   0.0000 246.0000 13.03091717    18
CTC1_L_00392030-01
1 47622U 26059YI  26037.47805556  .00000000  00000+0  00000-0 0  9990
2 47622  90.0000 348.0000 0000000   0.0000 348.0000 13.03091717    15
CTC1_L_00392030-02
1 47623U 26820SF  26037.47805556  .00000000  00000+0  00000-0 0  9997
2 47623  90.0000 348.0000 0000000   0.0000  78.0000 13.03091717    16
CTC1_L_00392030-03
1 47624U 26655NO  26037.47805556  .00000000  00000+0  00000-0 0  9994
2 47624  90.0000 348.0000 0000000   0.0000 168.0000 13.03091717    17
CTC1_L_00392030-04
1 47625U 24076SV  26037.47805556  .00000000  00000+0  00000-0 0  9990
2 47625  90.0000 348.0000 0000000   0.0000 258.0000 13.03091717    18
